{
"type": "FeatureCollection",
"name": "area_filter_0.05km2_20260129_171258",
"crs": { "type": "name", "properties": { "name": "urn:ogc:def:crs:OGC:1.3:CRS84" } },
"features": [
{ "type": "Feature", "properties": { "area_km2": 0.84239999999990045, "area_m2": 842399.99999990046 }, "geometry": { "type": "Polygon", "coordinates": [ [ [ 118.526119452608526, 31.491752165997429 ], [ 118.527066756186272, 31.491740865335469 ], [ 118.527079948473499, 31.492552603957375 ], [ 118.528027259694269, 31.492541295930504 ], [ 118.528040460690761, 31.493353034086635 ], [ 118.528987779554484, 31.493341718694406 ], [ 118.529000989260922, 31.494153456384513 ], [ 118.529948315767555, 31.494142133626507 ], [ 118.529961534184594, 31.494953870850367 ], [ 118.530908868334137, 31.494942540726115 ], [ 118.530922095462429, 31.495754277483496 ], [ 118.531869437254812, 31.495742939992589 ], [ 118.531882673094998, 31.496554676283242 ], [ 118.532830022530206, 31.496543331425237 ], [ 118.53284326708301, 31.497355067248936 ], [ 118.533790624160986, 31.497343715023387 ], [ 118.533803877426976, 31.49815545037989 ], [ 118.534751242147706, 31.498144090786383 ], [ 118.534764504127622, 31.498955825675477 ], [ 118.53571187649105, 31.498944458713556 ], [ 118.535725147185502, 31.499756193134985 ], [ 118.53667252719157, 31.499744818804224 ], [ 118.537619906661206, 31.49973343746419 ], [ 118.537606619609235, 31.498921703762576 ], [ 118.53855399036334, 31.498910315773543 ], [ 118.538540695669738, 31.498098582324022 ], [ 118.539488057708382, 31.498087187686412 ], [ 118.539474755373789, 31.497275454489209 ], [ 118.540422108697001, 31.497264053203502 ], [ 118.540408798722126, 31.496452320258832 ], [ 118.541356143329935, 31.496440912325472 ], [ 118.541342825715404, 31.49562917963355 ], [ 118.540395489284919, 31.495640587206051 ], [ 118.540382180385407, 31.494828854045146 ], [ 118.53943485159428, 31.494840254248903 ], [ 118.539421551409134, 31.494028520619224 ], [ 118.538474230257435, 31.494039913454692 ], [ 118.538460938785974, 31.4932281793565 ], [ 118.537513625273718, 31.493239564824098 ], [ 118.537500342515301, 31.492427830257583 ], [ 118.536553036642502, 31.492439208357752 ], [ 118.535605730233428, 31.492450579450633 ], [ 118.535592464363205, 31.491638844056368 ], [ 118.534645165593972, 31.491650207782456 ], [ 118.533697866289145, 31.491661564501484 ], [ 118.533684617305838, 31.490849828280314 ], [ 118.532737325641264, 31.49086117763321 ], [ 118.531790033441766, 31.490872519979209 ], [ 118.531776801344122, 31.490060782932098 ], [ 118.530829516785261, 31.49007211791259 ], [ 118.529882231692156, 31.490083445886391 ], [ 118.529869016478884, 31.489271708014225 ], [ 118.528921739026799, 31.489283028623181 ], [ 118.527974461041154, 31.48929434222562 ], [ 118.527027182522289, 31.489305648821592 ], [ 118.527013992366804, 31.488493909767563 ], [ 118.526066721489698, 31.488505208999509 ], [ 118.525119450080012, 31.488516501225142 ], [ 118.52417217813813, 31.488527786444436 ], [ 118.523224905664321, 31.488539064657413 ], [ 118.52323806312107, 31.489350805140063 ], [ 118.52418534376956, 31.489339526570269 ], [ 118.52419850993293, 31.490151266588114 ], [ 118.525145798224571, 31.490139980654696 ], [ 118.525158973095202, 31.490951720207445 ], [ 118.526106269029924, 31.490940426909962 ], [ 118.526119452608526, 31.491752165997429 ] ] ] } }
]
}
