{
"type": "FeatureCollection",
"name": "area_filter_0.05km2_20260129_154612",
"crs": { "type": "name", "properties": { "name": "urn:ogc:def:crs:OGC:1.3:CRS84" } },
"features": [
{ "type": "Feature", "properties": { "area_km2": 30.1644, "area_m2": 30164400.000000082 }, "geometry": { "type": "Polygon", "coordinates": [ [ [ 118.50178892850974, 31.569982003657646 ], [ 118.500840823690808, 31.569993141865965 ], [ 118.500853829199144, 31.570804880403536 ], [ 118.499905715646747, 31.570816011934639 ], [ 118.499918713471686, 31.571627750715848 ], [ 118.498970591185781, 31.571638875569292 ], [ 118.498983581326655, 31.572450614593937 ], [ 118.498035450307228, 31.572461732769273 ], [ 118.498048432763369, 31.573273472037148 ], [ 118.497100293010348, 31.573284583533908 ], [ 118.497113267781089, 31.574096323044781 ], [ 118.496165119294474, 31.574107427862543 ], [ 118.496178086379146, 31.574919167616205 ], [ 118.495229929158867, 31.574930265754489 ], [ 118.495242888556845, 31.575742005750737 ], [ 118.494294722602874, 31.575753097209109 ], [ 118.494307674313461, 31.576564837447755 ], [ 118.493359499625782, 31.576575922225757 ], [ 118.493372443648298, 31.577387662706538 ], [ 118.493385388193559, 31.578199403079338 ], [ 118.494333579303671, 31.578188317601004 ], [ 118.495281769890767, 31.578177225091505 ], [ 118.49529473138216, 31.57898896465576 ], [ 118.496242929657541, 31.578977864764461 ], [ 118.496255899884346, 31.579789603870093 ], [ 118.497204105847985, 31.579778496596592 ], [ 118.498152311287555, 31.579767382291518 ], [ 118.498165298462752, 31.580579120587213 ], [ 118.499113511590195, 31.580567998899262 ], [ 118.500061724192861, 31.580556870179525 ], [ 118.500074728317728, 31.581368607664384 ], [ 118.501022948607897, 31.581357471561141 ], [ 118.501971168372606, 31.581346328425912 ], [ 118.501984189448379, 31.58215806509903 ], [ 118.502932416900208, 31.582146914579649 ], [ 118.50388064382588, 31.582135757028109 ], [ 118.503893681853882, 31.582947492888554 ], [ 118.504841916466262, 31.582936327952211 ], [ 118.505790150551832, 31.582925155983489 ], [ 118.505803205533326, 31.583736891030366 ], [ 118.506751447305234, 31.583725711676212 ], [ 118.507699688549621, 31.583714525289476 ], [ 118.50771276048583, 31.584526259521859 ], [ 118.508661009416173, 31.584515065749049 ], [ 118.50960925781834, 31.584503864943482 ], [ 118.509622346710572, 31.585315598360467 ], [ 118.510570602798282, 31.585304390168158 ], [ 118.511518858357135, 31.585293174942919 ], [ 118.512467113386791, 31.585281952684724 ], [ 118.512480227450666, 31.586093684930947 ], [ 118.513428490165126, 31.586082455285172 ], [ 118.514376752349733, 31.586071218606264 ], [ 118.515325014004134, 31.586059974894233 ], [ 118.515338153241458, 31.58687170596766 ], [ 118.516286422579924, 31.586860454867203 ], [ 118.517234691387515, 31.586849196733404 ], [ 118.518182959663875, 31.586837931566336 ], [ 118.519131227408693, 31.586826659365958 ], [ 118.519144400036211, 31.58763838890852 ], [ 118.520092675463999, 31.587627109318667 ], [ 118.521040950359563, 31.587615822695312 ], [ 118.521989224722589, 31.587604529038497 ], [ 118.522937498552707, 31.587593228348208 ], [ 118.52295070457275, 31.588404956356364 ], [ 118.523898986084745, 31.588393648275527 ], [ 118.52484726706318, 31.588382333161043 ], [ 118.525795547507698, 31.588371011012942 ], [ 118.526743827418002, 31.588359681831189 ], [ 118.527692106793708, 31.588348345615849 ], [ 118.527705354424029, 31.589160071727939 ], [ 118.528653641480219, 31.589148728120762 ], [ 118.529601928001128, 31.589137377479773 ], [ 118.530550213986459, 31.589126019805001 ], [ 118.531498499435855, 31.589114655096466 ], [ 118.532446784349048, 31.589103283354163 ], [ 118.533395068725625, 31.589091904578137 ], [ 118.534343352565301, 31.589080518768348 ], [ 118.53529163586775, 31.589069125924855 ], [ 118.536239918632631, 31.589057726047638 ], [ 118.537188200859589, 31.589046319136742 ], [ 118.538136482548325, 31.589034905192175 ], [ 118.538149821085014, 31.589846627243134 ], [ 118.539098110450666, 31.589835205904201 ], [ 118.540046399277372, 31.589823777531418 ], [ 118.540994687564847, 31.58981234212477 ], [ 118.541942975312722, 31.589800899684271 ], [ 118.542891262520712, 31.589789450209953 ], [ 118.542877882906822, 31.58897772996464 ], [ 118.543826161359206, 31.588966273818308 ], [ 118.544774439270995, 31.588954810638384 ], [ 118.545722716641905, 31.588943340424894 ], [ 118.546670993471594, 31.588931863177859 ], [ 118.547619269759736, 31.588920378897271 ], [ 118.548567545506003, 31.58890888758318 ], [ 118.549515820710042, 31.588897389235566 ], [ 118.550464095371566, 31.588885883854463 ], [ 118.551412369490194, 31.588874371439879 ], [ 118.552360643065612, 31.588862851991816 ], [ 118.553308916097492, 31.588851325510305 ], [ 118.553295446659448, 31.588039609148574 ], [ 118.55424371093261, 31.588028075997862 ], [ 118.555191974661611, 31.588016535813939 ], [ 118.55614023784608, 31.588004988596829 ], [ 118.557088500485733, 31.587993434346544 ], [ 118.558036762580201, 31.5879818730631 ], [ 118.558985024129143, 31.587970304746502 ], [ 118.558971505948264, 31.587158590465044 ], [ 118.559919758736982, 31.587147015480891 ], [ 118.560868010979561, 31.587135433463825 ], [ 118.561816262675663, 31.587123844413878 ], [ 118.562764513824931, 31.587112248331049 ], [ 118.562750963333798, 31.586300535404749 ], [ 118.56369920572196, 31.586288932655503 ], [ 118.564647447562649, 31.586277322873659 ], [ 118.565595688855566, 31.586265706059212 ], [ 118.565582114270697, 31.5854539941244 ], [ 118.566530346801898, 31.585442370644451 ], [ 118.567478578784701, 31.58543074013215 ], [ 118.56842681021871, 31.585419102587498 ], [ 118.568413211542236, 31.584607391646188 ], [ 118.569361434213974, 31.584595747436968 ], [ 118.570309656336292, 31.58458409619567 ], [ 118.571257877908877, 31.584572437922304 ], [ 118.571244255142958, 31.583760727976408 ], [ 118.572192467952689, 31.583749063039399 ], [ 118.573140680212006, 31.583737391070553 ], [ 118.573127041571254, 31.58292568175322 ], [ 118.574075245067419, 31.582914003121424 ], [ 118.575023448012601, 31.582902317458057 ], [ 118.575971650406387, 31.582890624763134 ], [ 118.575957987680084, 31.582078916444498 ], [ 118.57690618131015, 31.582067217087531 ], [ 118.577854374388252, 31.582055510699263 ], [ 118.577840695790215, 31.581243803011358 ], [ 118.578788880104284, 31.581232089961734 ], [ 118.579737063865721, 31.58122036988107 ], [ 118.579723369397328, 31.580408662824713 ], [ 118.580671544394505, 31.580396936083382 ], [ 118.581619718838397, 31.580385202311252 ], [ 118.581606008501055, 31.579573495887367 ], [ 118.582554174180402, 31.579561755455273 ], [ 118.582540456186067, 31.578750049293625 ], [ 118.583488613100897, 31.578738302202005 ], [ 118.584436769461504, 31.578726548080081 ], [ 118.584423035600622, 31.577914842552165 ], [ 118.585371183196429, 31.577903081771396 ], [ 118.586319330237373, 31.577891313960574 ], [ 118.586305580511308, 31.577079609067262 ], [ 118.587253718787196, 31.577067834598299 ], [ 118.587239961406823, 31.576256129968311 ], [ 118.588188090917726, 31.576244348841655 ], [ 118.589136219872756, 31.57623256068543 ], [ 118.589122446629631, 31.575420856691331 ], [ 118.589108673942633, 31.574609152588621 ], [ 118.588160561405516, 31.574620940000145 ], [ 118.58814679748312, 31.573809235416483 ], [ 118.587198692598676, 31.573821015426763 ], [ 118.587184937440213, 31.573009310362391 ], [ 118.586236840208514, 31.573021082971842 ], [ 118.586223093813317, 31.572209377427004 ], [ 118.58527500423439, 31.572221142636057 ], [ 118.58526126660179, 31.571409436610974 ], [ 118.584313184675679, 31.571421194420104 ], [ 118.584299455805038, 31.570609487915018 ], [ 118.583351381531756, 31.570621238324613 ], [ 118.583337661422391, 31.569809531339793 ], [ 118.582389594802024, 31.569821274350303 ], [ 118.582375883453295, 31.569009566885935 ], [ 118.582362172658222, 31.568197859313017 ], [ 118.581414121897041, 31.568209594554148 ], [ 118.581400419861581, 31.567397886501936 ], [ 118.580452376753072, 31.567409614345088 ], [ 118.580438683476572, 31.566597905813857 ], [ 118.579490648020766, 31.566609626259453 ], [ 118.579476963502515, 31.565797917249395 ], [ 118.578528935699453, 31.565809630297888 ], [ 118.578515259938854, 31.564997920809258 ], [ 118.577567239788564, 31.565009626461084 ], [ 118.577553572784893, 31.564197916494109 ], [ 118.576605560287419, 31.564209614749686 ], [ 118.57659190204005, 31.563397904304619 ], [ 118.57564389719542, 31.563409595164408 ], [ 118.575630247703714, 31.56259788424147 ], [ 118.574682250511984, 31.562609567705881 ], [ 118.574668609775216, 31.561797856305311 ], [ 118.573720620236415, 31.561809532374802 ], [ 118.573706988253988, 31.560997820496834 ], [ 118.572759006368159, 31.561009489171834 ], [ 118.572745383139377, 31.560197776816707 ], [ 118.571797408906548, 31.560209438097662 ], [ 118.571783794430758, 31.559397725265629 ], [ 118.570835827850985, 31.559409379152942 ], [ 118.570822222127489, 31.558597665844214 ], [ 118.56987426320083, 31.558609312338351 ], [ 118.569860666229019, 31.557797598553172 ], [ 118.568912714955459, 31.557809237654549 ], [ 118.568899126734649, 31.556997523393164 ], [ 118.567951183114275, 31.557009155102211 ], [ 118.567937603643799, 31.556197440364848 ], [ 118.566989667676623, 31.556209064682044 ], [ 118.566976096955827, 31.555397349468922 ], [ 118.566028168641907, 31.555408966394676 ], [ 118.566014606670109, 31.55459725070606 ], [ 118.565066686009473, 31.554608860240801 ], [ 118.565053132786034, 31.553797144076931 ], [ 118.564105219778725, 31.553808746221094 ], [ 118.564091675302976, 31.552997029582162 ], [ 118.56314376994905, 31.553008624336201 ], [ 118.56313023422031, 31.552196907222488 ], [ 118.562182336519797, 31.552208494586832 ], [ 118.562168809537425, 31.55139677699853 ], [ 118.561220919490339, 31.551408356973603 ], [ 118.561207401253682, 31.550596638911021 ], [ 118.560259518860079, 31.550608211497259 ], [ 118.56024600936847, 31.54979649296056 ], [ 118.559298134628378, 31.549808058158415 ], [ 118.559284633881134, 31.548996339147866 ], [ 118.558336766794625, 31.549007896957775 ], [ 118.558323274791107, 31.548196177473603 ], [ 118.55737541535818, 31.548207727895988 ], [ 118.557361932097734, 31.547396007938442 ], [ 118.556414080318447, 31.547407550973734 ], [ 118.556400605800377, 31.546595830543041 ], [ 118.555452761674772, 31.546607366191683 ], [ 118.555439295898438, 31.545795645288074 ], [ 118.554491459426544, 31.545807173550511 ], [ 118.554478002391292, 31.54499545217422 ], [ 118.553530173573137, 31.545006973050885 ], [ 118.553516725278314, 31.544195251202183 ], [ 118.552568904113969, 31.544206764693499 ], [ 118.552555464558864, 31.543395042372584 ], [ 118.551607651048343, 31.543406548478995 ], [ 118.551594220232346, 31.542594825686116 ], [ 118.550646414375706, 31.54260632440803 ], [ 118.550632992298105, 31.541794601143433 ], [ 118.549685194095389, 31.541806092481341 ], [ 118.549671780755574, 31.540994368745231 ], [ 118.548723990206767, 31.541005852699538 ], [ 118.548710585604056, 31.540194128492185 ], [ 118.547762802709272, 31.540205605063317 ], [ 118.547749406842982, 31.539393880384942 ], [ 118.546801631602207, 31.539405349573347 ], [ 118.546788244471713, 31.538593624424184 ], [ 118.545840476885004, 31.538605086230305 ], [ 118.54582709848961, 31.537793360610596 ], [ 118.544879338557024, 31.537804815034864 ], [ 118.54486596889609, 31.536993088944826 ], [ 118.543918216617627, 31.53700453598768 ], [ 118.543904855690499, 31.536192809427551 ], [ 118.542957111066229, 31.536204249089426 ], [ 118.542943758872212, 31.53539252205946 ], [ 118.541996021902179, 31.535403954340769 ], [ 118.54104828439317, 31.535415379603148 ], [ 118.541061620200097, 31.536227107355675 ], [ 118.540113873958944, 31.536238525960052 ], [ 118.540127202110639, 31.537050253965312 ], [ 118.539179447137229, 31.53706166591121 ], [ 118.539192767633025, 31.537873394169001 ], [ 118.538245003927358, 31.537884799455984 ], [ 118.538258316766573, 31.538696527966099 ], [ 118.537310544328633, 31.538707926593723 ], [ 118.537323849510585, 31.539519655355935 ], [ 118.536376068340331, 31.539531047323742 ], [ 118.536389365864395, 31.540342776337866 ], [ 118.535441575961755, 31.5403541616454 ], [ 118.535454865827276, 31.541165890911202 ], [ 118.534507067192209, 31.541177269558009 ], [ 118.534520349398505, 31.541988999075304 ], [ 118.533572542030996, 31.542000371060929 ], [ 118.533585816577428, 31.542812100829497 ], [ 118.532638000477419, 31.5428234661535 ], [ 118.532651267363306, 31.54363519617311 ], [ 118.531703442530798, 31.543646554835043 ], [ 118.531716701755471, 31.544458285105474 ], [ 118.530768868190378, 31.544469637104893 ], [ 118.530782119753198, 31.545281367625972 ], [ 118.529834277455492, 31.5452927129624 ], [ 118.529847521355777, 31.546104443733881 ], [ 118.528899670325458, 31.54611578240689 ], [ 118.528912906562539, 31.546927513428606 ], [ 118.527965046799551, 31.546938845437712 ], [ 118.527978275372774, 31.547750576709415 ], [ 118.527030406877074, 31.547761902054209 ], [ 118.527043627785787, 31.548573633575682 ], [ 118.526095750557332, 31.548584952255688 ], [ 118.52610896380088, 31.54939668402675 ], [ 118.525161077839599, 31.549407996041509 ], [ 118.525174283417329, 31.550219728061908 ], [ 118.52422638872325, 31.550231033410995 ], [ 118.524239586634451, 31.551042765680577 ], [ 118.523291683207489, 31.551054064363516 ], [ 118.523304873451522, 31.551865796882002 ], [ 118.522356961291678, 31.551877088898369 ], [ 118.522370143867903, 31.552688821665612 ], [ 118.521422222975076, 31.552700107014939 ], [ 118.52143539788284, 31.553511840030652 ], [ 118.520487468257031, 31.553523118712487 ], [ 118.520500635495637, 31.554334851976535 ], [ 118.519552697136817, 31.554346123990424 ], [ 118.519565856705597, 31.555157857502547 ], [ 118.518617909613738, 31.555169122848042 ], [ 118.518631061512039, 31.555980856608066 ], [ 118.517683105687084, 31.555992115284713 ], [ 118.517696249914252, 31.556803849292393 ], [ 118.516748285356158, 31.55681510129973 ], [ 118.516761421911539, 31.557626835554892 ], [ 118.515813448620278, 31.557638080892474 ], [ 118.515826577503205, 31.558449815394855 ], [ 118.51487859547872, 31.558461054062271 ], [ 118.513930612924341, 31.558472285704102 ], [ 118.513943725930787, 31.55928402080842 ], [ 118.512995734643468, 31.55929524577936 ], [ 118.513008839975811, 31.560106981130321 ], [ 118.512060839955524, 31.56011819942993 ], [ 118.512073937613025, 31.560929935027257 ], [ 118.511125928859755, 31.560941146655068 ], [ 118.511139018841817, 31.561752882498581 ], [ 118.510191001355452, 31.561764087454158 ], [ 118.510204083661407, 31.562575823543643 ], [ 118.509256057441974, 31.56258702182652 ], [ 118.509269132071154, 31.563398758161775 ], [ 118.508321097118582, 31.563409949771515 ], [ 118.508334164070291, 31.564221686352326 ], [ 118.507386120384581, 31.564232871288457 ], [ 118.507399179658208, 31.565044608114579 ], [ 118.506451127239274, 31.565055786376689 ], [ 118.506464178834136, 31.565867523447942 ], [ 118.505516117681964, 31.565878695035533 ], [ 118.50552916159738, 31.566690432351702 ], [ 118.504581091711955, 31.566701597264334 ], [ 118.504594127947286, 31.567513334825225 ], [ 118.503646049328523, 31.56752449306245 ], [ 118.5036590778831, 31.568336230867818 ], [ 118.502710990531, 31.568347382429195 ], [ 118.50272401140414, 31.569159120478854 ], [ 118.50177591531866, 31.569170265363926 ], [ 118.50178892850974, 31.569982003657646 ] ] ] } }
]
}
