{
"type": "FeatureCollection",
"name": "area_filter_0.1km2_20260203_145501",
"crs": { "type": "name", "properties": { "name": "urn:ogc:def:crs:OGC:1.3:CRS84" } },
"features": [
{ "type": "Feature", "properties": { "area_km2": 7.1036999999998605, "area_m2": 7103699.9999998603 }, "geometry": { "type": "Polygon", "coordinates": [ [ [ 118.500555019108958, 31.49286638365351 ], [ 118.500567982985217, 31.493678132094253 ], [ 118.499620648265235, 31.493689237252166 ], [ 118.498673313021854, 31.49370033540206 ], [ 118.49868626106749, 31.49451208443735 ], [ 118.497738917123797, 31.494523175930084 ], [ 118.497751857515013, 31.495334925208411 ], [ 118.496804504870994, 31.495346010043537 ], [ 118.49681743760712, 31.496157759564664 ], [ 118.497764798429046, 31.496146674378878 ], [ 118.497777739865896, 31.496958423441495 ], [ 118.498725108343208, 31.496947330896081 ], [ 118.498738058481422, 31.497759079499936 ], [ 118.499685434614079, 31.497747979594472 ], [ 118.499698393454324, 31.498559727739327 ], [ 118.500645777242283, 31.498548620473386 ], [ 118.500658744785213, 31.499360368159003 ], [ 118.500671712852039, 31.50017211573676 ], [ 118.501619112474742, 31.500161000758315 ], [ 118.501632089245263, 31.500972747876578 ], [ 118.502579496523495, 31.500961625536561 ], [ 118.502592481998377, 31.501773372195117 ], [ 118.503539896932097, 31.501762242493072 ], [ 118.503552891112022, 31.502573988691683 ], [ 118.504500313701229, 31.502562851627196 ], [ 118.504513316586809, 31.503374597365635 ], [ 118.505460746831432, 31.503363452938252 ], [ 118.505473758423364, 31.504175198216267 ], [ 118.506421196323373, 31.504164046425554 ], [ 118.50643421662231, 31.504975791242931 ], [ 118.507381662177707, 31.504964632088456 ], [ 118.507394691184288, 31.505776376444953 ], [ 118.508342144394987, 31.505765209926267 ], [ 118.508355182109895, 31.50657695382165 ], [ 118.509302642975868, 31.506565779938345 ], [ 118.509315689399784, 31.507377523372348 ], [ 118.510263157920988, 31.507366342123984 ], [ 118.510276213054524, 31.508178085096404 ], [ 118.51122368923096, 31.508166896482535 ], [ 118.511236753074797, 31.508978638993113 ], [ 118.512184236906407, 31.508967443013308 ], [ 118.512197309461214, 31.509779185061838 ], [ 118.513144800947941, 31.509767981715658 ], [ 118.513157882214372, 31.510579723301891 ], [ 118.514105381356174, 31.510568512588893 ], [ 118.514118471334896, 31.511380253712591 ], [ 118.515065978131773, 31.511369035632356 ], [ 118.51507907682344, 31.512180776293278 ], [ 118.516026591275335, 31.512169550845353 ], [ 118.516039698680615, 31.512981291043264 ], [ 118.51698722078747, 31.512970058227243 ], [ 118.517000336907032, 31.513781797961922 ], [ 118.51794786666882, 31.513770557777324 ], [ 118.517960991503301, 31.514582297048548 ], [ 118.518908528919994, 31.514571049494961 ], [ 118.519856065806181, 31.514559794927862 ], [ 118.519842924601562, 31.513748056368243 ], [ 118.520790452771863, 31.513736795143785 ], [ 118.520777303913377, 31.512925056832263 ], [ 118.521724823367833, 31.512913788950879 ], [ 118.52171166685612, 31.512102050887655 ], [ 118.522659177594761, 31.512090776349805 ], [ 118.522646013430503, 31.511279038535104 ], [ 118.523593515453385, 31.511267757341216 ], [ 118.523580343637249, 31.510456019775248 ], [ 118.524527836944387, 31.510444731925812 ], [ 118.524514657476999, 31.509632994608761 ], [ 118.525462142068463, 31.509621700104212 ], [ 118.525448954950491, 31.50880996303632 ], [ 118.526396430826281, 31.508798661877098 ], [ 118.52638323605845, 31.507986925058553 ], [ 118.52733070321861, 31.507975617245133 ], [ 118.527317500801516, 31.50716388067616 ], [ 118.528264959246087, 31.507152566208958 ], [ 118.528251749180427, 31.50634082988979 ], [ 118.529199198909467, 31.506329508769277 ], [ 118.529185981195866, 31.505517772700102 ], [ 118.530133422209389, 31.505506444926723 ], [ 118.531080862688668, 31.505495110142459 ], [ 118.531067629146591, 31.504683374681974 ], [ 118.532015060910098, 31.50467203324553 ], [ 118.532001819721771, 31.503860298035672 ], [ 118.532949242769519, 31.503848949947507 ], [ 118.53293599393561, 31.503037214988485 ], [ 118.533883408267641, 31.503025860249046 ], [ 118.533870151788804, 31.502214125541094 ], [ 118.534817557405177, 31.502202764150837 ], [ 118.534804293282065, 31.501391029694126 ], [ 118.535751690182835, 31.501379661653509 ], [ 118.535738418416088, 31.500567927448298 ], [ 118.53668580660127, 31.50055655275775 ], [ 118.53667252719157, 31.499744818804224 ], [ 118.537619906661206, 31.49973343746419 ], [ 118.537606619609235, 31.498921703762576 ], [ 118.53855399036334, 31.498910315773543 ], [ 118.538540695669738, 31.498098582324022 ], [ 118.539488057708382, 31.498087187686412 ], [ 118.539474755373789, 31.497275454489209 ], [ 118.540422108697001, 31.497264053203502 ], [ 118.540408798722126, 31.496452320258832 ], [ 118.541356143329935, 31.496440912325472 ], [ 118.541342825715404, 31.49562917963355 ], [ 118.540395489284919, 31.495640587206051 ], [ 118.540382180385407, 31.494828854045146 ], [ 118.53943485159428, 31.494840254248903 ], [ 118.539421551409134, 31.494028520619224 ], [ 118.538474230257435, 31.494039913454692 ], [ 118.538460938785974, 31.4932281793565 ], [ 118.537513625273718, 31.493239564824098 ], [ 118.537500342515301, 31.492427830257583 ], [ 118.536553036642502, 31.492439208357752 ], [ 118.535605730233428, 31.492450579450633 ], [ 118.535592464363205, 31.491638844056368 ], [ 118.534645165593972, 31.491650207782456 ], [ 118.533697866289145, 31.491661564501484 ], [ 118.533684617305838, 31.490849828280314 ], [ 118.532737325641264, 31.49086117763321 ], [ 118.531790033441766, 31.490872519979209 ], [ 118.531776801344122, 31.490060782932098 ], [ 118.530829516785261, 31.49007211791259 ], [ 118.529882231692156, 31.490083445886391 ], [ 118.529869016478884, 31.489271708014225 ], [ 118.528921739026799, 31.489283028623181 ], [ 118.527974461041154, 31.48929434222562 ], [ 118.527027182522289, 31.489305648821592 ], [ 118.527013992366804, 31.488493909767563 ], [ 118.526066721489698, 31.488505208999509 ], [ 118.525119450080012, 31.488516501225142 ], [ 118.52417217813813, 31.488527786444436 ], [ 118.523224905664321, 31.488539064657413 ], [ 118.52227763265897, 31.488550335864034 ], [ 118.522264483908216, 31.487738594916756 ], [ 118.521317218546059, 31.48774985876064 ], [ 118.520369952653013, 31.487761115598357 ], [ 118.519422686229419, 31.487772365429908 ], [ 118.518475419275617, 31.487783608255263 ], [ 118.517528151791879, 31.487794844074436 ], [ 118.516580883778616, 31.487806072887381 ], [ 118.515633615236084, 31.487817294694104 ], [ 118.514686346164666, 31.487828509494587 ], [ 118.514699429519439, 31.488640253286697 ], [ 118.513752151744882, 31.488651461435531 ], [ 118.51280487344205, 31.488662662577887 ], [ 118.511857594611257, 31.488673856713735 ], [ 118.510910315252886, 31.488685043843073 ], [ 118.50996303536725, 31.488696223965878 ], [ 118.509976078375885, 31.489507969420853 ], [ 118.509028789788303, 31.489519142890632 ], [ 118.508081500674066, 31.489530309353604 ], [ 118.507134211033517, 31.489541468809801 ], [ 118.507147230043074, 31.490353215216757 ], [ 118.50619993170119, 31.490364368019002 ], [ 118.505252632833631, 31.49037551381419 ], [ 118.505265636017725, 31.491187260818695 ], [ 118.504318328449074, 31.491198399959245 ], [ 118.503371020355431, 31.491209532092508 ], [ 118.503384007712668, 31.492021279693731 ], [ 118.502436690918174, 31.492032405171663 ], [ 118.501489373599313, 31.492043523642071 ], [ 118.501502345128344, 31.492855271839137 ], [ 118.500555019108958, 31.49286638365351 ] ] ] } }
]
}
