{
"type": "FeatureCollection",
"name": "area_filter_0.05km2_20260204_194536",
"crs": { "type": "name", "properties": { "name": "urn:ogc:def:crs:OGC:1.3:CRS84" } },
"features": [
{ "type": "Feature", "properties": { "area_km2": 7.0307999999994948, "area_m2": 7030799.9999994952 }, "geometry": { "type": "Polygon", "coordinates": [ [ [ 118.501723867809162, 31.56592331110884 ], [ 118.501736878898356, 31.566735049834641 ], [ 118.500788806909156, 31.566746186635488 ], [ 118.500801810316858, 31.567557925605119 ], [ 118.499853729595614, 31.567569055729635 ], [ 118.499866725321155, 31.56838079494289 ], [ 118.498918635867796, 31.568391918390599 ], [ 118.498931623910508, 31.569203657847304 ], [ 118.497983525725019, 31.569214774617748 ], [ 118.497996506084263, 31.570026514317629 ], [ 118.497048399166601, 31.570037624410389 ], [ 118.497061371841696, 31.570849364353283 ], [ 118.497074345040687, 31.571661104188152 ], [ 118.498022468375353, 31.571649993393404 ], [ 118.498035450307228, 31.572461732769273 ], [ 118.498983581326655, 31.572450614593937 ], [ 118.499931711821489, 31.572439489389037 ], [ 118.499944710696226, 31.573251227954209 ], [ 118.500892848875438, 31.573240095368092 ], [ 118.500905856484692, 31.574051833473536 ], [ 118.501854002348225, 31.57404069350574 ], [ 118.502802147686154, 31.57402954650798 ], [ 118.502815172240489, 31.574841283801373 ], [ 118.503763325262355, 31.574830129421308 ], [ 118.503776358552869, 31.575641866254273 ], [ 118.504724519258644, 31.575630704491466 ], [ 118.505672679437737, 31.575619535698294 ], [ 118.505685729675591, 31.576431271717802 ], [ 118.506633897538237, 31.576420095541234 ], [ 118.507582064873532, 31.576408912334099 ], [ 118.507595132060004, 31.577220647539242 ], [ 118.508543307078398, 31.577209456948072 ], [ 118.50949148156883, 31.577198259326128 ], [ 118.510439655530902, 31.577187054673452 ], [ 118.511387828964303, 31.577175842990034 ], [ 118.511400929522779, 31.577987576671809 ], [ 118.512349110638226, 31.577976357603305 ], [ 118.513297291224319, 31.57796513150387 ], [ 118.514245471280731, 31.577953898373515 ], [ 118.51519365080712, 31.577942658212265 ], [ 118.516141829803175, 31.577931411020131 ], [ 118.516154971947302, 31.578743142819679 ], [ 118.517103158623954, 31.578731888241162 ], [ 118.518051344769574, 31.578720626631583 ], [ 118.518999530383823, 31.578709357990931 ], [ 118.519947715466415, 31.578698082319224 ], [ 118.520895900016967, 31.578686799616481 ], [ 118.521844084035166, 31.578675509882732 ], [ 118.522792267520686, 31.578664213117943 ], [ 118.522779067898057, 31.57785248381154 ], [ 118.523727242639438, 31.577841180372808 ], [ 118.524675416847458, 31.577829869903319 ], [ 118.52562359052186, 31.577818552403073 ], [ 118.526571763662261, 31.5778072278721 ], [ 118.52751993626832, 31.577795896310413 ], [ 118.527506696124846, 31.576984168683278 ], [ 118.528454859985544, 31.576972830449009 ], [ 118.529403023311318, 31.576961485184292 ], [ 118.530351186101754, 31.576950132889131 ], [ 118.530337921861829, 31.576138406228882 ], [ 118.531286075906337, 31.576127047262073 ], [ 118.532234229414897, 31.576115681265058 ], [ 118.533182382387196, 31.576104308237841 ], [ 118.533169094052965, 31.575292582546471 ], [ 118.534117238278739, 31.575281202848537 ], [ 118.535065381967584, 31.575269816120677 ], [ 118.535052077750748, 31.574458091040214 ], [ 118.536000212692798, 31.574446697642333 ], [ 118.535986900803962, 31.573634972813519 ], [ 118.536935026999217, 31.573623572746069 ], [ 118.537883152656605, 31.573612165649156 ], [ 118.537869824887593, 31.572800441432555 ], [ 118.53881794179793, 31.572789027666762 ], [ 118.538804606358568, 31.571977303702432 ], [ 118.539752714521939, 31.571965883268227 ], [ 118.539739371412878, 31.571154159556421 ], [ 118.540687470829269, 31.571142732454231 ], [ 118.541635569706514, 31.571131298323284 ], [ 118.541622210720689, 31.570319575225422 ], [ 118.540674120051236, 31.570331008995144 ], [ 118.54066076981232, 31.569519285427777 ], [ 118.539712686811228, 31.569530711808007 ], [ 118.539699345318553, 31.568718987771373 ], [ 118.538751269985866, 31.568730406762551 ], [ 118.538737937238778, 31.567918682256892 ], [ 118.537789869574524, 31.567930093859431 ], [ 118.53777654557237, 31.567118368885019 ], [ 118.536828485576592, 31.567129773099364 ], [ 118.53681517031869, 31.566318047656409 ], [ 118.53586711799143, 31.566329444482989 ], [ 118.535853811477125, 31.565517718571712 ], [ 118.534905766818412, 31.565529108010988 ], [ 118.534892469047051, 31.564717381631635 ], [ 118.533944432056927, 31.564728763684023 ], [ 118.533931143027814, 31.563917036836855 ], [ 118.532983113706351, 31.563928411502797 ], [ 118.532969833418846, 31.56311668418801 ], [ 118.532021811766029, 31.563128051467931 ], [ 118.532008540219479, 31.562316323685767 ], [ 118.531060526235393, 31.562327683580136 ], [ 118.53104726342913, 31.561515955330851 ], [ 118.530099257113761, 31.561527307840077 ], [ 118.530086003047145, 31.560715579123901 ], [ 118.529138004400565, 31.560726924248424 ], [ 118.529124759072886, 31.559915195065585 ], [ 118.52817676809515, 31.559926532805836 ], [ 118.52816353150574, 31.559114803156579 ], [ 118.52721554819685, 31.559126133512994 ], [ 118.527202320345125, 31.558314403397539 ], [ 118.526254344705137, 31.558325726370576 ], [ 118.52624112559036, 31.557513995789176 ], [ 118.525293157619302, 31.557525311379241 ], [ 118.525279947240847, 31.556713580332136 ], [ 118.524331986938776, 31.55672488853968 ], [ 118.524318785295975, 31.555913157027089 ], [ 118.523370832662906, 31.555924457852555 ], [ 118.523357639755091, 31.555112725874714 ], [ 118.522409694791065, 31.555124019318534 ], [ 118.522396510617583, 31.554312286875689 ], [ 118.521448573322672, 31.554323572938291 ], [ 118.52143539788284, 31.553511840030652 ], [ 118.520487468257031, 31.553523118712487 ], [ 118.520474301550223, 31.552711385340334 ], [ 118.5195263795936, 31.552722656641816 ], [ 118.519513221619079, 31.551910922805352 ], [ 118.518565307331656, 31.55192218672693 ], [ 118.517617392513188, 31.551933443624783 ], [ 118.517630534086422, 31.552745178172973 ], [ 118.516682610536577, 31.552756428402596 ], [ 118.516695744439573, 31.553568163198218 ], [ 118.515747812158281, 31.55357940675918 ], [ 118.515760938390386, 31.554391141802022 ], [ 118.514812997377646, 31.554402378693847 ], [ 118.514826115938192, 31.555214113983698 ], [ 118.513878166193948, 31.555225344205965 ], [ 118.513891277082266, 31.556037079742612 ], [ 118.512943318606489, 31.556048303294862 ], [ 118.51295642182194, 31.556860039078106 ], [ 118.512008454614573, 31.55687125595988 ], [ 118.512021550156476, 31.557682991989488 ], [ 118.511073574217491, 31.557694202200327 ], [ 118.511086662085205, 31.558505938476113 ], [ 118.510138677414574, 31.558517142015575 ], [ 118.510151757607403, 31.559328878537322 ], [ 118.509203764205097, 31.559340075404947 ], [ 118.509216836722402, 31.560151812172439 ], [ 118.508268834588364, 31.560163002367787 ], [ 118.508281899429448, 31.560974739380796 ], [ 118.50733388856365, 31.560985922903413 ], [ 118.507346945727903, 31.561797660161734 ], [ 118.506398926130316, 31.561808837011178 ], [ 118.506411975617027, 31.562620574514614 ], [ 118.505463947287581, 31.562631744690414 ], [ 118.505476989096124, 31.56344348243875 ], [ 118.504528952034818, 31.56345464594046 ], [ 118.504541986164512, 31.564266383933496 ], [ 118.503593940371289, 31.564277540760667 ], [ 118.503606966821465, 31.565089278998148 ], [ 118.502658912296297, 31.565100429150338 ], [ 118.502671931066331, 31.565912167632096 ], [ 118.501723867809162, 31.56592331110884 ] ] ] } }
]
}
