{
"type": "FeatureCollection",
"name": "area_filter_0.1km2_20260129_173532",
"crs": { "type": "name", "properties": { "name": "urn:ogc:def:crs:OGC:1.3:CRS84" } },
"features": [
{ "type": "Feature", "properties": { "area_km2": 1.1420999999993824, "area_m2": 1142099.9999993823 }, "geometry": { "type": "Polygon", "coordinates": [ [ [ 118.52419850993293, 31.490151266588114 ], [ 118.525145798224571, 31.490139980654696 ], [ 118.525158973095202, 31.490951720207445 ], [ 118.526106269029924, 31.490940426909962 ], [ 118.527053564432023, 31.490929126605533 ], [ 118.527066756186272, 31.491740865335469 ], [ 118.528014059231083, 31.491729557666346 ], [ 118.528961361742574, 31.491718242990046 ], [ 118.52897457038172, 31.492529980896244 ], [ 118.528027259694269, 31.492541295930504 ], [ 118.528040460690761, 31.493353034086635 ], [ 118.528053662220586, 31.494164772134727 ], [ 118.528066864283772, 31.494976510074753 ], [ 118.529014199501034, 31.494965193966586 ], [ 118.529027410274836, 31.495776931440592 ], [ 118.529040621582368, 31.496588668806549 ], [ 118.529987972620745, 31.496577344973911 ], [ 118.530935323125078, 31.496566014132792 ], [ 118.53094855132214, 31.497377750674048 ], [ 118.530961780053616, 31.498189487107219 ], [ 118.530975009319533, 31.499001223432337 ], [ 118.530988239119864, 31.499812959649365 ], [ 118.531001469454694, 31.50062469575834 ], [ 118.5319488603173, 31.500613356115405 ], [ 118.531962099366126, 31.501425091757589 ], [ 118.531014700324036, 31.501436431759206 ], [ 118.531027931727863, 31.502248167652027 ], [ 118.531041163666231, 31.503059903436725 ], [ 118.531054396139126, 31.503871639113406 ], [ 118.532001819721771, 31.503860298035672 ], [ 118.532949242769519, 31.503848949947507 ], [ 118.53293599393561, 31.503037214988485 ], [ 118.533883408267641, 31.503025860249046 ], [ 118.533870151788804, 31.502214125541094 ], [ 118.534817557405177, 31.502202764150837 ], [ 118.534804293282065, 31.501391029694126 ], [ 118.535751690182835, 31.501379661653509 ], [ 118.535738418416088, 31.500567927448298 ], [ 118.53668580660127, 31.50055655275775 ], [ 118.53667252719157, 31.499744818804224 ], [ 118.537619906661206, 31.49973343746419 ], [ 118.537606619609235, 31.498921703762576 ], [ 118.53855399036334, 31.498910315773543 ], [ 118.538540695669738, 31.498098582324022 ], [ 118.539488057708382, 31.498087187686412 ], [ 118.539474755373789, 31.497275454489209 ], [ 118.540422108697001, 31.497264053203502 ], [ 118.540408798722126, 31.496452320258832 ], [ 118.541356143329935, 31.496440912325472 ], [ 118.541342825715404, 31.49562917963355 ], [ 118.540395489284919, 31.495640587206051 ], [ 118.540382180385407, 31.494828854045146 ], [ 118.53943485159428, 31.494840254248903 ], [ 118.539421551409134, 31.494028520619224 ], [ 118.538474230257435, 31.494039913454692 ], [ 118.538460938785974, 31.4932281793565 ], [ 118.537513625273718, 31.493239564824098 ], [ 118.537500342515301, 31.492427830257583 ], [ 118.536553036642502, 31.492439208357752 ], [ 118.535605730233428, 31.492450579450633 ], [ 118.535592464363205, 31.491638844056368 ], [ 118.534645165593972, 31.491650207782456 ], [ 118.533697866289145, 31.491661564501484 ], [ 118.533684617305838, 31.490849828280314 ], [ 118.532737325641264, 31.49086117763321 ], [ 118.531790033441766, 31.490872519979209 ], [ 118.531776801344122, 31.490060782932098 ], [ 118.530829516785261, 31.49007211791259 ], [ 118.529882231692156, 31.490083445886391 ], [ 118.529869016478884, 31.489271708014225 ], [ 118.528921739026799, 31.489283028623181 ], [ 118.527974461041154, 31.48929434222562 ], [ 118.527027182522289, 31.489305648821592 ], [ 118.527013992366804, 31.488493909767563 ], [ 118.526066721489698, 31.488505208999509 ], [ 118.525119450080012, 31.488516501225142 ], [ 118.52417217813813, 31.488527786444436 ], [ 118.52418534376956, 31.489339526570269 ], [ 118.52419850993293, 31.490151266588114 ] ] ] } }
]
}
